ONEWEB-0018             
1 45434U 20020L   26165.08960657 -.00002988  00000+0 -84681-2 0  9992
2 45434  87.8891  21.6825 0001539  77.5786 282.5514 13.11433388302226
ONEWEB-0083             
1 45435U 20020M   26165.15600016 -.00000311  00000+0 -91446-3 0  9997
2 45435  87.8895  21.6630 0001748  86.5012 273.6316 13.11415145302276
ONEWEB-0095             
1 45436U 20020N   26165.14753688  .00000055  00000+0  11945-3 0  9990
2 45436  87.8896  21.6733 0002443  95.0896 265.0511 13.11419246302278
ONEWEB-0092             
1 45437U 20020P   26165.10160032 -.00021688  00000+0 -61266-1 0  9998
2 45437  87.8898  21.6744 0001580  98.8080 261.3227 13.11535797302385
ONEWEB-0085             
1 45438U 20020Q   26165.15572018 -.00000278  00000+0 -81912-3 0  9999
2 45438  87.8889  21.6700 0001811  85.7722 274.3613 13.11414161302275
ONEWEB-0096             
1 45439U 20020R   26165.15755973 -.00000371  00000+0 -10825-2 0  9991
2 45439  87.8898  21.6655 0001877  87.9818 272.1525 13.11421046302264
ONEWEB-0037             
1 45440U 20020S   26165.11572246  .00000295  00000+0  79163-3 0  9993
2 45440  87.8908  21.6476 0001904  86.0872 274.0474 13.11913751302296
ONEWEB-0042             
1 45441U 20020T   26165.14724975 -.00000130  00000+0 -40345-3 0  9995
2 45441  87.8903  21.6637 0001865  81.2698 278.8642 13.11413089302265
ONEWEB-0098             
1 45442U 20020U   26165.29574495  .00000255  00000+0  68451-3 0  9996
2 45442  87.8893  21.6437 0001746  86.5896 273.5432 13.11415042302268
ONEWEB-0055             
1 45443U 20020V   26165.12183539  .00000492  00000+0  13537-2 0  9991
2 45443  87.8896  21.6772 0001756  87.1930 272.9399 13.11417858302218
ONEWEB-0093             
1 45444U 20020W   26165.10173092 -.00001014  00000+0 -28961-2 0  9993
2 45444  87.8897  21.6743 0001991  73.9616 286.1731 13.11420077302273
ONEWEB-0029             
1 45445U 20020X   26165.12887223  .00000656  00000+0  18156-2 0  9998
2 45445  87.8884  21.6778 0001782  74.9263 285.2063 13.11419591302250
ONEWEB-0068             
1 45446U 20020Y   26165.10146304 -.00000285  00000+0 -84126-3 0  9996
2 45446  87.8899  21.6780 0001765  78.7374 281.3952 13.11418968302190
ONEWEB-0046             
1 45447U 20020Z   26165.09311419 -.00000459  00000+0 -13297-2 0  9999
2 45447  87.8892  21.6860 0002035  79.6154 280.5203 13.11415656302203
ONEWEB-0063             
1 45448U 20020AA  26165.12208747  .00000466  00000+0  12799-2 0  9995
2 45448  87.8899  21.6786 0002134  86.1437 273.9935 13.11419934302295
ONEWEB-0019             
1 45449U 20020AB  26165.16080303 -.00000418  00000+0 -12158-2 0  9994
2 45449  87.8892  21.6572 0001705  89.1859 270.9465 13.11414887302147
