[{"OBJECT_NAME":"ONEWEB-0018","OBJECT_ID":"2020-020L","EPOCH":"2026-06-14T02:09:02.007648","MEAN_MOTION":13.11433388,"ECCENTRICITY":0.0001539,"INCLINATION":87.8891,"RA_OF_ASC_NODE":21.6825,"ARG_OF_PERICENTER":77.5786,"MEAN_ANOMALY":282.5514,"EPHEMERIS_TYPE":0,"CLASSIFICATION_TYPE":"U","NORAD_CAT_ID":45434,"ELEMENT_SET_NO":999,"REV_AT_EPOCH":30222,"BSTAR":-0.0084681,"MEAN_MOTION_DOT":-2.988e-05,"MEAN_MOTION_DDOT":0.0},{"OBJECT_NAME":"ONEWEB-0083","OBJECT_ID":"2020-020M","EPOCH":"2026-06-14T03:44:38.413824","MEAN_MOTION":13.11415145,"ECCENTRICITY":0.0001748,"INCLINATION":87.8895,"RA_OF_ASC_NODE":21.663,"ARG_OF_PERICENTER":86.5012,"MEAN_ANOMALY":273.6316,"EPHEMERIS_TYPE":0,"CLASSIFICATION_TYPE":"U","NORAD_CAT_ID":45435,"ELEMENT_SET_NO":999,"REV_AT_EPOCH":30227,"BSTAR":-0.0009144600000000001,"MEAN_MOTION_DOT":-3.11e-06,"MEAN_MOTION_DDOT":0.0},{"OBJECT_NAME":"ONEWEB-0095","OBJECT_ID":"2020-020N","EPOCH":"2026-06-14T03:32:27.186432","MEAN_MOTION":13.11419246,"ECCENTRICITY":0.0002443,"INCLINATION":87.8896,"RA_OF_ASC_NODE":21.6733,"ARG_OF_PERICENTER":95.0896,"MEAN_ANOMALY":265.0511,"EPHEMERIS_TYPE":0,"CLASSIFICATION_TYPE":"U","NORAD_CAT_ID":45436,"ELEMENT_SET_NO":999,"REV_AT_EPOCH":30227,"BSTAR":0.00011945,"MEAN_MOTION_DOT":5.5e-07,"MEAN_MOTION_DDOT":0.0},{"OBJECT_NAME":"ONEWEB-0092","OBJECT_ID":"2020-020P","EPOCH":"2026-06-14T02:26:18.267648","MEAN_MOTION":13.11535797,"ECCENTRICITY":0.000158,"INCLINATION":87.8898,"RA_OF_ASC_NODE":21.6744,"ARG_OF_PERICENTER":98.808,"MEAN_ANOMALY":261.3227,"EPHEMERIS_TYPE":0,"CLASSIFICATION_TYPE":"U","NORAD_CAT_ID":45437,"ELEMENT_SET_NO":999,"REV_AT_EPOCH":30238,"BSTAR":-0.061266,"MEAN_MOTION_DOT":-0.00021688,"MEAN_MOTION_DDOT":0.0},{"OBJECT_NAME":"ONEWEB-0085","OBJECT_ID":"2020-020Q","EPOCH":"2026-06-14T03:44:14.223552","MEAN_MOTION":13.11414161,"ECCENTRICITY":0.0001811,"INCLINATION":87.8889,"RA_OF_ASC_NODE":21.67,"ARG_OF_PERICENTER":85.7722,"MEAN_ANOMALY":274.3613,"EPHEMERIS_TYPE":0,"CLASSIFICATION_TYPE":"U","NORAD_CAT_ID":45438,"ELEMENT_SET_NO":999,"REV_AT_EPOCH":30227,"BSTAR":-0.00081912,"MEAN_MOTION_DOT":-2.78e-06,"MEAN_MOTION_DDOT":0.0},{"OBJECT_NAME":"ONEWEB-0096","OBJECT_ID":"2020-020R","EPOCH":"2026-06-14T03:46:53.160672","MEAN_MOTION":13.11421046,"ECCENTRICITY":0.0001877,"INCLINATION":87.8898,"RA_OF_ASC_NODE":21.6655,"ARG_OF_PERICENTER":87.9818,"MEAN_ANOMALY":272.1525,"EPHEMERIS_TYPE":0,"CLASSIFICATION_TYPE":"U","NORAD_CAT_ID":45439,"ELEMENT_SET_NO":999,"REV_AT_EPOCH":30226,"BSTAR":-0.0010825,"MEAN_MOTION_DOT":-3.71e-06,"MEAN_MOTION_DDOT":0.0},{"OBJECT_NAME":"ONEWEB-0037","OBJECT_ID":"2020-020S","EPOCH":"2026-06-14T02:46:38.420544","MEAN_MOTION":13.11913751,"ECCENTRICITY":0.0001904,"INCLINATION":87.8908,"RA_OF_ASC_NODE":21.6476,"ARG_OF_PERICENTER":86.0872,"MEAN_ANOMALY":274.0474,"EPHEMERIS_TYPE":0,"CLASSIFICATION_TYPE":"U","NORAD_CAT_ID":45440,"ELEMENT_SET_NO":999,"REV_AT_EPOCH":30229,"BSTAR":0.00079163,"MEAN_MOTION_DOT":2.95e-06,"MEAN_MOTION_DDOT":0.0},{"OBJECT_NAME":"ONEWEB-0042","OBJECT_ID":"2020-020T","EPOCH":"2026-06-14T03:32:02.378400","MEAN_MOTION":13.11413089,"ECCENTRICITY":0.0001865,"INCLINATION":87.8903,"RA_OF_ASC_NODE":21.6637,"ARG_OF_PERICENTER":81.2698,"MEAN_ANOMALY":278.8642,"EPHEMERIS_TYPE":0,"CLASSIFICATION_TYPE":"U","NORAD_CAT_ID":45441,"ELEMENT_SET_NO":999,"REV_AT_EPOCH":30226,"BSTAR":-0.00040344999999999997,"MEAN_MOTION_DOT":-1.3e-06,"MEAN_MOTION_DDOT":0.0},{"OBJECT_NAME":"ONEWEB-0098","OBJECT_ID":"2020-020U","EPOCH":"2026-06-14T07:05:52.363680","MEAN_MOTION":13.11415042,"ECCENTRICITY":0.0001746,"INCLINATION":87.8893,"RA_OF_ASC_NODE":21.6437,"ARG_OF_PERICENTER":86.5896,"MEAN_ANOMALY":273.5432,"EPHEMERIS_TYPE":0,"CLASSIFICATION_TYPE":"U","NORAD_CAT_ID":45442,"ELEMENT_SET_NO":999,"REV_AT_EPOCH":30226,"BSTAR":0.0006845099999999999,"MEAN_MOTION_DOT":2.55e-06,"MEAN_MOTION_DDOT":0.0},{"OBJECT_NAME":"ONEWEB-0055","OBJECT_ID":"2020-020V","EPOCH":"2026-06-14T02:55:26.577696","MEAN_MOTION":13.11417858,"ECCENTRICITY":0.0001756,"INCLINATION":87.8896,"RA_OF_ASC_NODE":21.6772,"ARG_OF_PERICENTER":87.193,"MEAN_ANOMALY":272.9399,"EPHEMERIS_TYPE":0,"CLASSIFICATION_TYPE":"U","NORAD_CAT_ID":45443,"ELEMENT_SET_NO":999,"REV_AT_EPOCH":30221,"BSTAR":0.0013537,"MEAN_MOTION_DOT":4.92e-06,"MEAN_MOTION_DDOT":0.0},{"OBJECT_NAME":"ONEWEB-0093","OBJECT_ID":"2020-020W","EPOCH":"2026-06-14T02:26:29.551488","MEAN_MOTION":13.11420077,"ECCENTRICITY":0.0001991,"INCLINATION":87.8897,"RA_OF_ASC_NODE":21.6743,"ARG_OF_PERICENTER":73.9616,"MEAN_ANOMALY":286.1731,"EPHEMERIS_TYPE":0,"CLASSIFICATION_TYPE":"U","NORAD_CAT_ID":45444,"ELEMENT_SET_NO":999,"REV_AT_EPOCH":30227,"BSTAR":-0.0028961,"MEAN_MOTION_DOT":-1.014e-05,"MEAN_MOTION_DDOT":0.0},{"OBJECT_NAME":"ONEWEB-0029","OBJECT_ID":"2020-020X","EPOCH":"2026-06-14T03:05:34.560672","MEAN_MOTION":13.11419591,"ECCENTRICITY":0.0001782,"INCLINATION":87.8884,"RA_OF_ASC_NODE":21.6778,"ARG_OF_PERICENTER":74.9263,"MEAN_ANOMALY":285.2063,"EPHEMERIS_TYPE":0,"CLASSIFICATION_TYPE":"U","NORAD_CAT_ID":45445,"ELEMENT_SET_NO":999,"REV_AT_EPOCH":30225,"BSTAR":0.0018156000000000001,"MEAN_MOTION_DOT":6.56e-06,"MEAN_MOTION_DDOT":0.0},{"OBJECT_NAME":"ONEWEB-0068","OBJECT_ID":"2020-020Y","EPOCH":"2026-06-14T02:26:06.406656","MEAN_MOTION":13.11418968,"ECCENTRICITY":0.0001765,"INCLINATION":87.8899,"RA_OF_ASC_NODE":21.678,"ARG_OF_PERICENTER":78.7374,"MEAN_ANOMALY":281.3952,"EPHEMERIS_TYPE":0,"CLASSIFICATION_TYPE":"U","NORAD_CAT_ID":45446,"ELEMENT_SET_NO":999,"REV_AT_EPOCH":30219,"BSTAR":-0.00084126,"MEAN_MOTION_DOT":-2.85e-06,"MEAN_MOTION_DDOT":0.0},{"OBJECT_NAME":"ONEWEB-0046","OBJECT_ID":"2020-020Z","EPOCH":"2026-06-14T02:14:05.066016","MEAN_MOTION":13.11415656,"ECCENTRICITY":0.0002035,"INCLINATION":87.8892,"RA_OF_ASC_NODE":21.686,"ARG_OF_PERICENTER":79.6154,"MEAN_ANOMALY":280.5203,"EPHEMERIS_TYPE":0,"CLASSIFICATION_TYPE":"U","NORAD_CAT_ID":45447,"ELEMENT_SET_NO":999,"REV_AT_EPOCH":30220,"BSTAR":-0.0013297,"MEAN_MOTION_DOT":-4.59e-06,"MEAN_MOTION_DDOT":0.0},{"OBJECT_NAME":"ONEWEB-0063","OBJECT_ID":"2020-020AA","EPOCH":"2026-06-14T02:55:48.357408","MEAN_MOTION":13.11419934,"ECCENTRICITY":0.0002134,"INCLINATION":87.8899,"RA_OF_ASC_NODE":21.6786,"ARG_OF_PERICENTER":86.1437,"MEAN_ANOMALY":273.9935,"EPHEMERIS_TYPE":0,"CLASSIFICATION_TYPE":"U","NORAD_CAT_ID":45448,"ELEMENT_SET_NO":999,"REV_AT_EPOCH":30229,"BSTAR":0.0012799,"MEAN_MOTION_DOT":4.66e-06,"MEAN_MOTION_DDOT":0.0},{"OBJECT_NAME":"ONEWEB-0019","OBJECT_ID":"2020-020AB","EPOCH":"2026-06-14T03:51:33.381792","MEAN_MOTION":13.11414887,"ECCENTRICITY":0.0001705,"INCLINATION":87.8892,"RA_OF_ASC_NODE":21.6572,"ARG_OF_PERICENTER":89.1859,"MEAN_ANOMALY":270.9465,"EPHEMERIS_TYPE":0,"CLASSIFICATION_TYPE":"U","NORAD_CAT_ID":45449,"ELEMENT_SET_NO":999,"REV_AT_EPOCH":30214,"BSTAR":-0.0012158,"MEAN_MOTION_DOT":-4.18e-06,"MEAN_MOTION_DDOT":0.0}]